{
  "type": "FeatureCollection",
  "features": [
    {
      "type": "Feature",
      "properties": {
        "norad_id": 2807,
        "name": "OPS 7218 (TRANSIT 16)",
        "group": "nnss",
        "lat": -34.67560231674883,
        "lon": 174.0888998238179,
        "alt_km": 1082.241610054587,
        "timestamp": "2025-12-17T09:00:17.416807+00:00",
        "meta_object_name": "OPS 7218 (TRANSIT 16)",
        "meta_object_id": "1967-048A",
        "meta_epoch": "2025-12-16T23:20:17.679840",
        "meta_mean_motion": 13.50723111,
        "meta_eccentricity": 0.00220935,
        "meta_inclination": 89.6731,
        "meta_ra_of_asc_node": 353.8759,
        "meta_arg_of_pericenter": 102.792,
        "meta_mean_anomaly": 314.1827,
        "meta_ephemeris_type": 0,
        "meta_classification_type": "U",
        "meta_norad_cat_id": 2807,
        "meta_element_set_no": 999,
        "meta_rev_at_epoch": 88333,
        "meta_bstar": 0.00017641229,
        "meta_mean_motion_dot": 1.24e-06,
        "meta_mean_motion_ddot": 0,
        "tle_line1": "1 02807U 67048A   25350.97242685  .00000124  00000+0  17641-3 0  9998",
        "tle_line2": "2 02807  89.6731 353.8759 0022093 102.7920 314.1827 13.50723111883335"
      },
      "geometry": {
        "type": "Point",
        "coordinates": [
          174.0888998238179,
          -34.67560231674883
        ]
      }
    },
    {
      "type": "Feature",
      "properties": {
        "norad_id": 2965,
        "name": "OPS 4947 (TRANSIT 17)",
        "group": "nnss",
        "lat": -35.22256845150192,
        "lon": 23.55186499655431,
        "alt_km": 1074.189721669055,
        "timestamp": "2025-12-17T09:00:17.416829+00:00",
        "meta_object_name": "OPS 4947 (TRANSIT 17)",
        "meta_object_id": "1967-092A",
        "meta_epoch": "2025-12-17T00:37:32.193120",
        "meta_mean_motion": 13.53454589,
        "meta_eccentricity": 0.00464587,
        "meta_inclination": 89.2493,
        "meta_ra_of_asc_node": 24.1088,
        "meta_arg_of_pericenter": 221.692,
        "meta_mean_anomaly": 202.5434,
        "meta_ephemeris_type": 0,
        "meta_classification_type": "U",
        "meta_norad_cat_id": 2965,
        "meta_element_set_no": 999,
        "meta_rev_at_epoch": 87155,
        "meta_bstar": 0.00021064631,
        "meta_mean_motion_dot": 1.54e-06,
        "meta_mean_motion_ddot": 0,
        "tle_line1": "1 02965U 67092A   25351.02606705  .00000154  00000+0  21065-3 0  9994",
        "tle_line2": "2 02965  89.2493  24.1088 0046458 221.6920 202.5434 13.53454589871554"
      },
      "geometry": {
        "type": "Point",
        "coordinates": [
          23.55186499655431,
          -35.22256845150192
        ]
      }
    },
    {
      "type": "Feature",
      "properties": {
        "norad_id": 3133,
        "name": "OPS 7034 (TRANSIT 18)",
        "group": "nnss",
        "lat": 81.23860068278152,
        "lon": -86.53045439360349,
        "alt_km": 1044.0020612558446,
        "timestamp": "2025-12-17T09:00:17.416842+00:00",
        "meta_object_name": "OPS 7034 (TRANSIT 18)",
        "meta_object_id": "1968-012A",
        "meta_epoch": "2025-12-16T20:28:55.964064",
        "meta_mean_motion": 13.51566617,
        "meta_eccentricity": 0.00742512,
        "meta_inclination": 90.0281,
        "meta_ra_of_asc_node": 273.6505,
        "meta_arg_of_pericenter": 157.2452,
        "meta_mean_anomaly": 267.5658,
        "meta_ephemeris_type": 0,
        "meta_classification_type": "U",
        "meta_norad_cat_id": 3133,
        "meta_element_set_no": 999,
        "meta_rev_at_epoch": 56974,
        "meta_bstar": 0.00013330459,
        "meta_mean_motion_dot": 9.8e-07,
        "meta_mean_motion_ddot": 0,
        "tle_line1": "1 03133U 68012A   25350.85342551  .00000098  00000+0  13330-3 0  9994",
        "tle_line2": "2 03133  90.0281 273.6505 0074251 157.2452 267.5658 13.51566617569746"
      },
      "geometry": {
        "type": "Point",
        "coordinates": [
          -86.53045439360349,
          81.23860068278152
        ]
      }
    },
    {
      "type": "Feature",
      "properties": {
        "norad_id": 4507,
        "name": "NNSS 19 (TRANSIT 19)",
        "group": "nnss",
        "lat": 50.77357951320599,
        "lon": -125.46931780368597,
        "alt_km": 1144.783630825662,
        "timestamp": "2025-12-17T09:00:17.416854+00:00",
        "meta_object_name": "NNSS 19 (TRANSIT 19)",
        "meta_object_id": "1970-067A",
        "meta_epoch": "2025-12-16T16:45:30.285216",
        "meta_mean_motion": 13.51315902,
        "meta_eccentricity": 0.01703466,
        "meta_inclination": 90.0052,
        "meta_ra_of_asc_node": 234.5367,
        "meta_arg_of_pericenter": 281.8048,
        "meta_mean_anomaly": 76.4041,
        "meta_ephemeris_type": 0,
        "meta_classification_type": "U",
        "meta_norad_cat_id": 4507,
        "meta_element_set_no": 999,
        "meta_rev_at_epoch": 72275,
        "meta_bstar": 0.00013076623,
        "meta_mean_motion_dot": 1e-06,
        "meta_mean_motion_ddot": 0,
        "tle_line1": "1 04507U 70067A   25350.69826719  .00000100  00000+0  13077-3 0  9990",
        "tle_line2": "2 04507  90.0052 234.5367 0170346 281.8048  76.4041 13.51315902722751"
      },
      "geometry": {
        "type": "Point",
        "coordinates": [
          -125.46931780368597,
          50.77357951320599
        ]
      }
    },
    {
      "type": "Feature",
      "properties": {
        "norad_id": 6909,
        "name": "NNSS 20 (TRANSIT 20)",
        "group": "nnss",
        "lat": 81.70243329122627,
        "lon": 73.99807040514523,
        "alt_km": 890.496416540077,
        "timestamp": "2025-12-17T09:00:17.416865+00:00",
        "meta_object_name": "NNSS 20 (TRANSIT 20)",
        "meta_object_id": "1973-081A",
        "meta_epoch": "2025-12-16T18:31:54.033888",
        "meta_mean_motion": 13.71436224,
        "meta_eccentricity": 0.01565552,
        "meta_inclination": 89.8562,
        "meta_ra_of_asc_node": 254.9938,
        "meta_arg_of_pericenter": 66.3791,
        "meta_mean_anomaly": 295.3721,
        "meta_ephemeris_type": 0,
        "meta_classification_type": "U",
        "meta_norad_cat_id": 6909,
        "meta_element_set_no": 999,
        "meta_rev_at_epoch": 80416,
        "meta_bstar": 0.00023685714,
        "meta_mean_motion_dot": 2.44e-06,
        "meta_mean_motion_ddot": 0,
        "tle_line1": "1 06909U 73081A   25350.77215317  .00000244  00000+0  23686-3 0  9998",
        "tle_line2": "2 06909  89.8562 254.9938 0156555  66.3791 295.3721 13.71436224804164"
      },
      "geometry": {
        "type": "Point",
        "coordinates": [
          73.99807040514523,
          81.70243329122627
        ]
      }
    },
    {
      "type": "Feature",
      "properties": {
        "norad_id": 10457,
        "name": "TRANSAT",
        "group": "nnss",
        "lat": 14.625515160705284,
        "lon": 78.52480810233847,
        "alt_km": 1095.2329821366757,
        "timestamp": "2025-12-17T09:00:17.416876+00:00",
        "meta_object_name": "TRANSAT",
        "meta_object_id": "1977-106A",
        "meta_epoch": "2025-12-16T19:15:33.820128",
        "meta_mean_motion": 13.48944212,
        "meta_eccentricity": 0.00257827,
        "meta_inclination": 89.6481,
        "meta_ra_of_asc_node": 78.4532,
        "meta_arg_of_pericenter": 177.7803,
        "meta_mean_anomaly": 297.4249,
        "meta_ephemeris_type": 0,
        "meta_classification_type": "U",
        "meta_norad_cat_id": 10457,
        "meta_element_set_no": 999,
        "meta_rev_at_epoch": 36798,
        "meta_bstar": 9.3925565e-05,
        "meta_mean_motion_dot": 6.9e-07,
        "meta_mean_motion_ddot": 0,
        "tle_line1": "1 10457U 77106A   25350.80247477  .00000069  00000+0  93926-4 0  9999",
        "tle_line2": "2 10457  89.6481  78.4532 0025782 177.7803 297.4249 13.48944212367989"
      },
      "geometry": {
        "type": "Point",
        "coordinates": [
          78.52480810233847,
          14.625515160705284
        ]
      }
    },
    {
      "type": "Feature",
      "properties": {
        "norad_id": 12458,
        "name": "NOVA 1",
        "group": "nnss",
        "lat": -28.920051194890263,
        "lon": -88.59895671707282,
        "alt_km": 1183.3964033187613,
        "timestamp": "2025-12-17T09:00:17.416887+00:00",
        "meta_object_name": "NOVA 1",
        "meta_object_id": "1981-044A",
        "meta_epoch": "2025-12-16T19:49:11.947872",
        "meta_mean_motion": 13.23278928,
        "meta_eccentricity": 0.00159319,
        "meta_inclination": 89.8527,
        "meta_ra_of_asc_node": 91.3274,
        "meta_arg_of_pericenter": 93.9903,
        "meta_mean_anomaly": 19.092,
        "meta_ephemeris_type": 0,
        "meta_classification_type": "U",
        "meta_norad_cat_id": 12458,
        "meta_element_set_no": 999,
        "meta_rev_at_epoch": 15240,
        "meta_bstar": 5.7343517e-05,
        "meta_mean_motion_dot": 3.3e-07,
        "meta_mean_motion_ddot": 0,
        "tle_line1": "1 12458U 81044A   25350.82583273  .00000033  00000+0  57344-4 0  9992",
        "tle_line2": "2 12458  89.8527  91.3274 0015931  93.9903  19.0920 13.23278928152407"
      },
      "geometry": {
        "type": "Point",
        "coordinates": [
          -88.59895671707282,
          -28.920051194890263
        ]
      }
    }
  ]
}